     3.05           N: GNSS NAV DATA    E: Galileo          RINEX VERSION / TYPE
JPS2RIN v.2.1.237   JAVAD GNSS          20260602 072032 UTC PGM / RUN BY / DATE
    18                                                      LEAP SECONDS
GAL    1.1250D+02  8.2031D-02  2.0020D-02  0.0000D+00       IONOSPHERIC CORR
GAUT  0.0000000000D+00 0.000000000D+00 172800 2421          TIME SYSTEM CORR
GAGP  4.0454324335D-09 1.598721155D-14 172800 2421          TIME SYSTEM CORR
                                                            END OF HEADER
E14 2026 06 02 06 20 00 3.396772779524D-03 1.197975052492D-10 3.469446951954D-18
     7.200000000000D+01 4.515625000000D+01 7.608174053845D-09-5.419070646730D-01
     2.468004822731D-06 1.674867076799D-01 3.453344106674D-06 5.289307899475D+03
     1.956000000000D+05 2.197921276093D-06 4.307961353825D-01-2.253800630569D-07
     8.540726041236D-01 2.351875000000D+02 3.130837932332D+00-1.142976180974D-08
    -2.217949529358D-10 2.580000000000D+02 2.421000000000D+03 0.000000000000D+00
     3.599999904633D+00 1.600000000000D+01-4.889443516731D-09 0.000000000000D+00
     1.963500000000D+05
E14 2026 06 02 06 20 00 3.396772779524D-03 1.198117161039D-10 3.469446951954D-18
     7.200000000000D+01 4.515625000000D+01 7.608174053845D-09-5.419070646730D-01
     2.468004822731D-06 1.674867076799D-01 3.453344106674D-06 5.289307899475D+03
     1.956000000000D+05 2.197921276093D-06 4.307961353825D-01-2.253800630569D-07
     8.540726041236D-01 2.351875000000D+02 3.130837932332D+00-1.142976180974D-08
    -2.217949529358D-10 5.160000000000D+02 2.421000000000D+03 0.000000000000D+00
     3.599999904633D+00 1.300000000000D+02-4.889443516731D-09-5.587935447693D-09
     1.962940000000D+05
E10 2026 06 02 06 30 00-7.961440715007D-04-2.700062395888D-12 0.000000000000D+00
     7.300000000000D+01 6.212500000000D+01 2.593322307998D-09-4.210732351161D-01
     2.963468432426D-06 2.801492810249D-04-8.605420589447D-07 5.440603298187D+03
     1.962000000000D+05-3.166496753693D-08 1.634371345235D+00-4.470348358154D-08
     9.973473892820D-01 3.800000000000D+02 1.779380291040D+00-5.604519165005D-09
    -1.107188976008D-11 5.130000000000D+02 2.421000000000D+03 0.000000000000D+00
     3.119999885559D+00 0.000000000000D+00-2.793967723846D-09-1.862645149231D-09
     1.968850000000D+05
E14 2026 06 02 06 30 00 3.396844724193D-03 1.198117161039D-10 3.469446951954D-18
     7.300000000000D+01 4.675000000000D+01 7.837826476933D-09-4.609535552172D-01
     2.536922693253D-06 1.674854803132D-01 3.600493073463D-06 5.289304410934D+03
     1.962000000000D+05 2.013519406319D-06 4.307905250917D-01-5.774199962616D-08
     8.540714557329D-01 2.315937500000D+02 3.130838726697D+00-1.178870533261D-08
    -2.810831368123D-10 2.580000000000D+02 2.421000000000D+03 0.000000000000D+00
     3.599999904633D+00 1.600000000000D+01-4.889443516731D-09 0.000000000000D+00
     1.970000000000D+05
E14 2026 06 02 06 30 00 3.396844724193D-03 1.198259269586D-10 3.469446951954D-18
     7.300000000000D+01 4.675000000000D+01 7.837826476933D-09-4.609535552172D-01
     2.536922693253D-06 1.674854803132D-01 3.600493073463D-06 5.289304410934D+03
     1.962000000000D+05 2.013519406319D-06 4.307905250917D-01-5.774199962616D-08
     8.540714557329D-01 2.315937500000D+02 3.130838726697D+00-1.178870533261D-08
    -2.810831368123D-10 5.160000000000D+02 2.421000000000D+03 0.000000000000D+00
     3.599999904633D+00 1.300000000000D+02-4.889443516731D-09-5.587935447693D-09
     1.968940000000D+05
